{
    "links": {
        "self": "http://www.neowsapp.com/rest/v1/neo/3687134?api_key=iIulBulltgU6a56xZRHN4H3l9WmuAYTsLGpBGhQ2"
    },
    "id": "3687134",
    "neo_reference_id": "3687134",
    "name": "(2014 QK439)",
    "designation": "2014 QK439",
    "nasa_jpl_url": "http://ssd.jpl.nasa.gov/sbdb.cgi?sstr=3687134",
    "absolute_magnitude_h": 23.8,
    "estimated_diameter": {
        "kilometers": {
            "estimated_diameter_min": 0.046190746,
            "estimated_diameter_max": 0.1032856481
        },
        "meters": {
            "estimated_diameter_min": 46.1907460282,
            "estimated_diameter_max": 103.2856480504
        },
        "miles": {
            "estimated_diameter_min": 0.0287015901,
            "estimated_diameter_max": 0.0641787064
        },
        "feet": {
            "estimated_diameter_min": 151.544447199,
            "estimated_diameter_max": 338.8636855496
        }
    },
    "is_potentially_hazardous_asteroid": false,
    "close_approach_data": [
        {
            "close_approach_date": "2014-09-04",
            "close_approach_date_full": "2014-Sep-04 02:41",
            "epoch_date_close_approach": 1409798460000,
            "relative_velocity": {
                "kilometers_per_second": "7.6608640267",
                "kilometers_per_hour": "27579.1104962615",
                "miles_per_hour": "17136.5867414131"
            },
            "miss_distance": {
                "astronomical": "0.125500612",
                "lunar": "48.819738068",
                "kilometers": "18774624.23889644",
                "miles": "11666010.541953272"
            },
            "orbiting_body": "Earth"
        },
        {
            "close_approach_date": "2037-09-30",
            "close_approach_date_full": "2037-Sep-30 09:35",
            "epoch_date_close_approach": 2137916100000,
            "relative_velocity": {
                "kilometers_per_second": "17.9094738973",
                "kilometers_per_hour": "64474.1060302264",
                "miles_per_hour": "40061.702160837"
            },
            "miss_distance": {
                "astronomical": "0.4913915802",
                "lunar": "191.1513246978",
                "kilometers": "73511133.733854174",
                "miles": "45677700.3991046412"
            },
            "orbiting_body": "Earth"
        }
    ],
    "orbital_data": {
        "orbit_id": "7",
        "orbit_determination_date": "2017-04-06 08:38:49",
        "first_observation_date": "2014-08-31",
        "last_observation_date": "2014-09-27",
        "data_arc_in_days": 27,
        "observations_used": 27,
        "orbit_uncertainty": "7",
        "minimum_orbit_intersection": ".12887",
        "jupiter_tisserand_invariant": "3.465",
        "epoch_osculation": "2459000.5",
        "eccentricity": ".4929467693791613",
        "semi_major_axis": "2.214734526535308",
        "inclination": "10.5890459598606",
        "ascending_node_longitude": "355.7459508724932",
        "orbital_period": "1203.873739255702",
        "perihelion_distance": "1.122988296647241",
        "perihelion_argument": "336.9446064975647",
        "aphelion_distance": "3.306480756423374",
        "perihelion_time": "2459304.970307959368",
        "mean_anomaly": "268.952818479836",
        "mean_motion": ".2990346813467092",
        "equinox": "J2000",
        "orbit_class": {
            "orbit_class_type": "AMO",
            "orbit_class_description": "Near-Earth asteroid orbits similar to that of 1221 Amor",
            "orbit_class_range": "1.017 AU < q (perihelion) < 1.3 AU"
        }
    },
    "is_sentry_object": false
}